{
    "links": {
        "self": "http://www.neowsapp.com/rest/v1/neo/54016547?api_key=iIulBulltgU6a56xZRHN4H3l9WmuAYTsLGpBGhQ2"
    },
    "id": "54016547",
    "neo_reference_id": "54016547",
    "name": "(2020 HH)",
    "designation": "2020 HH",
    "nasa_jpl_url": "http://ssd.jpl.nasa.gov/sbdb.cgi?sstr=54016547",
    "absolute_magnitude_h": 19.868,
    "estimated_diameter": {
        "kilometers": {
            "estimated_diameter_min": 0.2824587134,
            "estimated_diameter_max": 0.6315968841
        },
        "meters": {
            "estimated_diameter_min": 282.458713424,
            "estimated_diameter_max": 631.5968840531
        },
        "miles": {
            "estimated_diameter_min": 0.1755116532,
            "estimated_diameter_max": 0.3924559874
        },
        "feet": {
            "estimated_diameter_min": 926.7018453499,
            "estimated_diameter_max": 2072.1683210769
        }
    },
    "is_potentially_hazardous_asteroid": false,
    "close_approach_data": [
        {
            "close_approach_date": "1999-08-06",
            "close_approach_date_full": "1999-Aug-06 18:57",
            "epoch_date_close_approach": 933965820000,
            "relative_velocity": {
                "kilometers_per_second": "25.6172406018",
                "kilometers_per_hour": "92222.0661664984",
                "miles_per_hour": "57303.2055021778"
            },
            "miss_distance": {
                "astronomical": "0.3164076633",
                "lunar": "123.0825810237",
                "kilometers": "47333912.481357171",
                "miles": "29411929.3666281198"
            },
            "orbiting_body": "Earth"
        },
        {
            "close_approach_date": "2010-08-18",
            "close_approach_date_full": "2010-Aug-18 22:33",
            "epoch_date_close_approach": 1282170780000,
            "relative_velocity": {
                "kilometers_per_second": "18.6847587257",
                "kilometers_per_hour": "67265.1314126258",
                "miles_per_hour": "41795.9367935841"
            },
            "miss_distance": {
                "astronomical": "0.2066145207",
                "lunar": "80.3730485523",
                "kilometers": "30909092.207790909",
                "miles": "19206019.3029721842"
            },
            "orbiting_body": "Earth"
        },
        {
            "close_approach_date": "2020-01-17",
            "close_approach_date_full": "2020-Jan-17 16:42",
            "epoch_date_close_approach": 1579279320000,
            "relative_velocity": {
                "kilometers_per_second": "15.8726810053",
                "kilometers_per_hour": "57141.6516189281",
                "miles_per_hour": "35505.6001406612"
            },
            "miss_distance": {
                "astronomical": "0.3210880028",
                "lunar": "124.9032330892",
                "kilometers": "48034081.301434036",
                "miles": "29846994.0972042568"
            },
            "orbiting_body": "Earth"
        },
        {
            "close_approach_date": "2021-09-09",
            "close_approach_date_full": "2021-Sep-09 15:17",
            "epoch_date_close_approach": 1631200620000,
            "relative_velocity": {
                "kilometers_per_second": "12.763483226",
                "kilometers_per_hour": "45948.5396136119",
                "miles_per_hour": "28550.6356282468"
            },
            "miss_distance": {
                "astronomical": "0.2955450873",
                "lunar": "114.9670389597",
                "kilometers": "44212915.549044051",
                "miles": "27472631.7993118638"
            },
            "orbiting_body": "Earth"
        },
        {
            "close_approach_date": "2031-02-19",
            "close_approach_date_full": "2031-Feb-19 00:36",
            "epoch_date_close_approach": 1929227760000,
            "relative_velocity": {
                "kilometers_per_second": "16.6661179348",
                "kilometers_per_hour": "59998.0245651328",
                "miles_per_hour": "37280.4392082626"
            },
            "miss_distance": {
                "astronomical": "0.2187692301",
                "lunar": "85.1012305089",
                "kilometers": "32727410.844499887",
                "miles": "20335870.1119449606"
            },
            "orbiting_body": "Earth"
        }
    ],
    "orbital_data": {
        "orbit_id": "6",
        "orbit_determination_date": "2020-05-02 06:48:08",
        "first_observation_date": "2020-04-10",
        "last_observation_date": "2020-04-26",
        "data_arc_in_days": 16,
        "observations_used": 35,
        "orbit_uncertainty": "7",
        "minimum_orbit_intersection": ".206649",
        "jupiter_tisserand_invariant": "4.296",
        "epoch_osculation": "2459000.5",
        "eccentricity": ".6129463894001443",
        "semi_major_axis": "1.501004697279212",
        "inclination": "12.35296759692038",
        "ascending_node_longitude": "74.77995961813856",
        "orbital_period": "671.6940540621692",
        "perihelion_distance": ".5809692876092625",
        "perihelion_argument": "348.6780591087498",
        "aphelion_distance": "2.421040106949162",
        "perihelion_time": "2458839.403578687673",
        "mean_anomaly": "86.34096330272106",
        "mean_motion": ".5359582950345424",
        "equinox": "J2000",
        "orbit_class": {
            "orbit_class_type": "APO",
            "orbit_class_description": "Near-Earth asteroid orbits which cross the Earth’s orbit similar to that of 1862 Apollo",
            "orbit_class_range": "a (semi-major axis) > 1.0 AU; q (perihelion) < 1.017 AU"
        }
    },
    "is_sentry_object": false
}